{
  "type": "FeatureCollection",
  "features": [
    {
      "type": "Feature",
      "properties": {
        "norad_id": 47059,
        "name": "COSMOS 2251 DEB",
        "group": "cosmos-2251-debris",
        "lat": -45.7222829985301,
        "lon": 90.2220896534394,
        "alt_km": 546.6365779677099,
        "timestamp": "2025-12-04T05:42:43.770628+00:00",
        "meta_object_name": "COSMOS 2251 DEB",
        "meta_object_id": "1993-036BXP",
        "meta_epoch": "2025-11-30T02:15:08.813664",
        "meta_mean_motion": 15.10829083,
        "meta_eccentricity": 0.00120344,
        "meta_inclination": 73.9823,
        "meta_ra_of_asc_node": 261.6801,
        "meta_arg_of_pericenter": 69.4658,
        "meta_mean_anomaly": 304.3449,
        "meta_ephemeris_type": 0,
        "meta_classification_type": "U",
        "meta_norad_cat_id": 47059,
        "meta_element_set_no": 999,
        "meta_rev_at_epoch": 8114,
        "meta_bstar": 0.003761596,
        "meta_mean_motion_dot": 0.00063166,
        "meta_mean_motion_ddot": 0,
        "tle_line1": "1 47059U 93036BXP 25334.09385201  .00063166  00000+0  37616-2 0  9997",
        "tle_line2": "2 47059  73.9823 261.6801 0012034  69.4658 304.3449 15.10829083 81149"
      },
      "geometry": {
        "type": "Point",
        "coordinates": [
          90.2220896534394,
          -45.7222829985301
        ]
      }
    },
    {
      "type": "Feature",
      "properties": {
        "norad_id": 47062,
        "name": "COSMOS 2251 DEB",
        "group": "cosmos-2251-debris",
        "lat": -53.33826403299416,
        "lon": -65.26079541031957,
        "alt_km": 770.5886281440835,
        "timestamp": "2025-12-04T05:42:43.770638+00:00",
        "meta_object_name": "COSMOS 2251 DEB",
        "meta_object_id": "1993-036BXS",
        "meta_epoch": "2025-11-30T14:51:43.416000",
        "meta_mean_motion": 13.71861812,
        "meta_eccentricity": 0.0323451,
        "meta_inclination": 74.0848,
        "meta_ra_of_asc_node": 98.1641,
        "meta_arg_of_pericenter": 226.4501,
        "meta_mean_anomaly": 143.6726,
        "meta_ephemeris_type": 0,
        "meta_classification_type": "U",
        "meta_norad_cat_id": 47062,
        "meta_element_set_no": 999,
        "meta_rev_at_epoch": 55436,
        "meta_bstar": 0.002328,
        "meta_mean_motion_dot": 3.04e-05,
        "meta_mean_motion_ddot": 0,
        "tle_line1": "1 47062U 93036BXS 25334.61925250  .00003040  00000+0  23280-2 0  9990",
        "tle_line2": "2 47062  74.0848  98.1641 0323451 226.4501 143.6726 13.71861812554369"
      },
      "geometry": {
        "type": "Point",
        "coordinates": [
          -65.26079541031957,
          -53.33826403299416
        ]
      }
    },
    {
      "type": "Feature",
      "properties": {
        "norad_id": 47068,
        "name": "COSMOS 2251 DEB",
        "group": "cosmos-2251-debris",
        "lat": 30.391171027981603,
        "lon": -130.80318181145378,
        "alt_km": 712.6089294872081,
        "timestamp": "2025-12-04T05:42:43.770648+00:00",
        "meta_object_name": "COSMOS 2251 DEB",
        "meta_object_id": "1993-036BXY",
        "meta_epoch": "2025-12-03T09:44:17.539584",
        "meta_mean_motion": 14.53041706,
        "meta_eccentricity": 0.00184743,
        "meta_inclination": 74.0247,
        "meta_ra_of_asc_node": 221.0956,
        "meta_arg_of_pericenter": 308.5367,
        "meta_mean_anomaly": 51.4138,
        "meta_ephemeris_type": 0,
        "meta_classification_type": "U",
        "meta_norad_cat_id": 47068,
        "meta_element_set_no": 999,
        "meta_rev_at_epoch": 61621,
        "meta_bstar": 0.0013183929,
        "meta_mean_motion_dot": 5.433e-05,
        "meta_mean_motion_ddot": 0,
        "tle_line1": "1 47068U 93036BXY 25337.40575856  .00005433  00000+0  13184-2 0  9999",
        "tle_line2": "2 47068  74.0247 221.0956 0018474 308.5367  51.4138 14.53041706616211"
      },
      "geometry": {
        "type": "Point",
        "coordinates": [
          -130.80318181145378,
          30.391171027981603
        ]
      }
    },
    {
      "type": "Feature",
      "properties": {
        "norad_id": 47073,
        "name": "COSMOS 2251 DEB",
        "group": "cosmos-2251-debris",
        "lat": -52.02052692696108,
        "lon": 58.074679886548225,
        "alt_km": 774.3464135520408,
        "timestamp": "2025-12-04T05:42:43.770658+00:00",
        "meta_object_name": "COSMOS 2251 DEB",
        "meta_object_id": "1993-036BYD",
        "meta_epoch": "2025-11-28T23:48:38.837952",
        "meta_mean_motion": 14.04684181,
        "meta_eccentricity": 0.01626495,
        "meta_inclination": 74.0833,
        "meta_ra_of_asc_node": 225.7586,
        "meta_arg_of_pericenter": 267.1836,
        "meta_mean_anomaly": 91.0675,
        "meta_ephemeris_type": 0,
        "meta_classification_type": "U",
        "meta_norad_cat_id": 47073,
        "meta_element_set_no": 999,
        "meta_rev_at_epoch": 60168,
        "meta_bstar": 0.0003803633,
        "meta_mean_motion_dot": 6.6e-06,
        "meta_mean_motion_ddot": 0,
        "tle_line1": "1 47073U 93036BYD 25332.99211618  .00000660  00000+0  38036-3 0  9998",
        "tle_line2": "2 47073  74.0833 225.7586 0162649 267.1836  91.0675 14.04684181601680"
      },
      "geometry": {
        "type": "Point",
        "coordinates": [
          58.074679886548225,
          -52.02052692696108
        ]
      }
    },
    {
      "type": "Feature",
      "properties": {
        "norad_id": 47074,
        "name": "COSMOS 2251 DEB",
        "group": "cosmos-2251-debris",
        "lat": 14.127725990124558,
        "lon": 140.14056844485083,
        "alt_km": 875.287442128456,
        "timestamp": "2025-12-04T05:42:43.770668+00:00",
        "meta_object_name": "COSMOS 2251 DEB",
        "meta_object_id": "1993-036BYE",
        "meta_epoch": "2025-12-03T18:02:52.457856",
        "meta_mean_motion": 14.35498744,
        "meta_eccentricity": 0.01434773,
        "meta_inclination": 74.091,
        "meta_ra_of_asc_node": 325.1457,
        "meta_arg_of_pericenter": 355.2449,
        "meta_mean_anomaly": 179.085,
        "meta_ephemeris_type": 0,
        "meta_classification_type": "U",
        "meta_norad_cat_id": 47074,
        "meta_element_set_no": 999,
        "meta_rev_at_epoch": 2553,
        "meta_bstar": 0.0029812178,
        "meta_mean_motion_dot": 9.625e-05,
        "meta_mean_motion_ddot": 0,
        "tle_line1": "1 47074U 93036BYE 25337.75199604  .00009625  00000+0  29812-2 0  9999",
        "tle_line2": "2 47074  74.0910 325.1457 0143477 355.2449 179.0850 14.35498744 25534"
      },
      "geometry": {
        "type": "Point",
        "coordinates": [
          140.14056844485083,
          14.127725990124558
        ]
      }
    },
    {
      "type": "Feature",
      "properties": {
        "norad_id": 47116,
        "name": "COSMOS 2251 DEB",
        "group": "cosmos-2251-debris",
        "lat": -73.58635356230793,
        "lon": 154.49018689017018,
        "alt_km": 580.5086268137593,
        "timestamp": "2025-12-04T05:42:43.770679+00:00",
        "meta_object_name": "COSMOS 2251 DEB",
        "meta_object_id": "1993-036BYJ",
        "meta_epoch": "2025-11-28T02:40:22.126944",
        "meta_mean_motion": 14.97052334,
        "meta_eccentricity": 0.00224176,
        "meta_inclination": 74.0247,
        "meta_ra_of_asc_node": 270.3586,
        "meta_arg_of_pericenter": 5.4926,
        "meta_mean_anomaly": 12.2387,
        "meta_ephemeris_type": 0,
        "meta_classification_type": "U",
        "meta_norad_cat_id": 47116,
        "meta_element_set_no": 999,
        "meta_rev_at_epoch": 59292,
        "meta_bstar": 0.0024991708,
        "meta_mean_motion_dot": 0.00029033,
        "meta_mean_motion_ddot": 0,
        "tle_line1": "1 47116U 93036BYJ 25332.11136721  .00029033  00000+0  24992-2 0  9991",
        "tle_line2": "2 47116  74.0247 270.3586 0022417   5.4926  12.2387 14.97052334592926"
      },
      "geometry": {
        "type": "Point",
        "coordinates": [
          154.49018689017018,
          -73.58635356230793
        ]
      }
    },
    {
      "type": "Feature",
      "properties": {
        "norad_id": 53093,
        "name": "COSMOS 2251 DEB",
        "group": "cosmos-2251-debris",
        "lat": 4.217149723685155,
        "lon": -41.57785562015978,
        "alt_km": 743.3104743265194,
        "timestamp": "2025-12-04T05:42:43.770689+00:00",
        "meta_object_name": "COSMOS 2251 DEB",
        "meta_object_id": "1993-036BYP",
        "meta_epoch": "2025-12-03T09:42:31.468032",
        "meta_mean_motion": 14.4178878,
        "meta_eccentricity": 0.00186797,
        "meta_inclination": 74.036,
        "meta_ra_of_asc_node": 318.7566,
        "meta_arg_of_pericenter": 38.1854,
        "meta_mean_anomaly": 322.0621,
        "meta_ephemeris_type": 0,
        "meta_classification_type": "U",
        "meta_norad_cat_id": 53093,
        "meta_element_set_no": 999,
        "meta_rev_at_epoch": 17591,
        "meta_bstar": 0.001292791,
        "meta_mean_motion_dot": 4.208e-05,
        "meta_mean_motion_ddot": 0,
        "tle_line1": "1 53093U 93036BYP 25337.40453088  .00004208  00000+0  12928-2 0  9990",
        "tle_line2": "2 53093  74.0360 318.7566 0018679  38.1854 322.0621 14.41788780175915"
      },
      "geometry": {
        "type": "Point",
        "coordinates": [
          -41.57785562015978,
          4.217149723685155
        ]
      }
    }
  ]
}